UMBRA-07                
1 58297U 23174AT  26068.71829358  .00012685  00000+0  84614-3 0  9990
2 58297  97.3902 128.3323 0004131  75.5473 284.6213 15.07174057128425
STARLINK-35268          
1 65810U 25218V   26068.63091651  .00004261  00000+0  29931-3 0  9990
2 65810  97.6029 292.9394 0002163  74.6897 285.4569 15.05655017 24961
